{"type": "FeatureCollection", "features": [{"type": "Feature", "properties": {"norad_id": 26766, "name": "INTELSAT 10 (IS-10)", "group": "intelsat", "lat": 6.43968798182131, "lon": -166.93889358089575, "alt_km": 36125.88605704615, "timestamp": "2025-12-14T22:38:40.426708+00:00", "meta": {"OBJECT_NAME": "INTELSAT 10 (IS-10)", "OBJECT_ID": "2001-019A", "EPOCH": "2025-12-14T01:52:09.627744", "MEAN_MOTION": 0.99078199, "ECCENTRICITY": 0.00077381, "INCLINATION": 8.633, "RA_OF_ASC_NODE": 61.1442, "ARG_OF_PERICENTER": 226.2785, "MEAN_ANOMALY": 316.6401, "EPHEMERIS_TYPE": 0, "CLASSIFICATION_TYPE": "U", "NORAD_CAT_ID": 26766, "ELEMENT_SET_NO": 999, "REV_AT_EPOCH": 4374, "BSTAR": 0, "MEAN_MOTION_DOT": -2.62e-06, "MEAN_MOTION_DDOT": 0}, "tle": {"line1": "1 26766U 01019A   25348.07788921 -.00000262  00000+0  00000+0 0  9991", "line2": "2 26766   8.6330  61.1442 0007738 226.2785 316.6401  0.99078199 43745"}}, "geometry": {"type": "Point", "coordinates": [-166.93889358089575, 6.43968798182131]}}, {"type": "Feature", "properties": {"norad_id": 26900, "name": "INTELSAT 902 (IS-902)", "group": "intelsat", "lat": -4.911007197198655, "lon": 13.585064885760815, "alt_km": 35794.64997573111, "timestamp": "2025-12-14T22:38:40.426732+00:00", "meta": {"OBJECT_NAME": "INTELSAT 902 (IS-902)", "OBJECT_ID": "2001-039A", "EPOCH": "2025-12-11T04:42:42.842016", "MEAN_MOTION": 1.00272526, "ECCENTRICITY": 0.00044264, "INCLINATION": 5.6424, "RA_OF_ASC_NODE": 74.0881, "ARG_OF_PERICENTER": 184.9809, "MEAN_ANOMALY": 201.6699, "EPHEMERIS_TYPE": 0, "CLASSIFICATION_TYPE": "U", "NORAD_CAT_ID": 26900, "ELEMENT_SET_NO": 999, "REV_AT_EPOCH": 8881, "BSTAR": 0, "MEAN_MOTION_DOT": -2.78e-06, "MEAN_MOTION_DDOT": 0}, "tle": {"line1": "1 26900U 01039A   25345.19632919 -.00000278  00000+0  00000+0 0  9995", "line2": "2 26900   5.6424  74.0881 0004426 184.9809 201.6699  1.00272526 88816"}}, "geometry": {"type": "Point", "coordinates": [13.585064885760815, -4.911007197198655]}}, {"type": "Feature", "properties": {"norad_id": 27380, "name": "INTELSAT 904 (IS-904)", "group": "intelsat", "lat": -4.078010615012402, "lon": 32.21568351452494, "alt_km": 35786.11202330482, "timestamp": "2025-12-14T22:38:40.426747+00:00", "meta": {"OBJECT_NAME": "INTELSAT 904 (IS-904)", "OBJECT_ID": "2002-007A", "EPOCH": "2025-12-14T02:59:42.362304", "MEAN_MOTION": 1.00272528, "ECCENTRICITY": 0.0001552, "INCLINATION": 6.4582, "RA_OF_ASC_NODE": 71.4168, "ARG_OF_PERICENTER": 234.0895, "MEAN_ANOMALY": 150.9662, "EPHEMERIS_TYPE": 0, "CLASSIFICATION_TYPE": "U", "NORAD_CAT_ID": 27380, "ELEMENT_SET_NO": 999, "REV_AT_EPOCH": 4991, "BSTAR": 0, "MEAN_MOTION_DOT": -2.11e-06, "MEAN_MOTION_DDOT": 0}, "tle": {"line1": "1 27380U 02007A   25348.12479586 -.00000211  00000+0  00000+0 0  9996", "line2": "2 27380   6.4582  71.4168 0001552 234.0895 150.9662  1.00272528 49917"}}, "geometry": {"type": "Point", "coordinates": [32.21568351452494, -4.078010615012402]}}, {"type": "Feature", "properties": {"norad_id": 27426, "name": "DIRECTV 5 (TEMPO 1)", "group": "intelsat", "lat": -3.6552772857061853, "lon": -46.65703166071318, "alt_km": 35774.80781532467, "timestamp": "2025-12-14T22:38:40.426760+00:00", "meta": {"OBJECT_NAME": "DIRECTV 5 (TEMPO 1)", "OBJECT_ID": "2002-023A", "EPOCH": "2025-12-14T04:20:04.664256", "MEAN_MOTION": 1.00272314, "ECCENTRICITY": 0.00034329, "INCLINATION": 4.4059, "RA_OF_ASC_NODE": 77.6366, "ARG_OF_PERICENTER": 198.9031, "MEAN_ANOMALY": 121.459, "EPHEMERIS_TYPE": 0, "CLASSIFICATION_TYPE": "U", "NORAD_CAT_ID": 27426, "ELEMENT_SET_NO": 999, "REV_AT_EPOCH": 8626, "BSTAR": 0, "MEAN_MOTION_DOT": -4.1e-07, "MEAN_MOTION_DDOT": 0}, "tle": {"line1": "1 27426U 02023A   25348.18060954 -.00000041  00000+0  00000+0 0  9997", "line2": "2 27426   4.4059  77.6366 0003432 198.9031 121.4590  1.00272314 86267"}}, "geometry": {"type": "Point", "coordinates": [-46.65703166071318, -3.6552772857061853]}}, {"type": "Feature", "properties": {"norad_id": 27438, "name": "INTELSAT 905 (IS-905)", "group": "intelsat", "lat": -3.5608479124433865, "lon": -73.81216238714907, "alt_km": 35774.84625930494, "timestamp": "2025-12-14T22:38:40.426773+00:00", "meta": {"OBJECT_NAME": "INTELSAT 905 (IS-905)", "OBJECT_ID": "2002-027A", "EPOCH": "2025-12-14T04:33:38.635200", "MEAN_MOTION": 1.00274201, "ECCENTRICITY": 0.00026501, "INCLINATION": 6.2894, "RA_OF_ASC_NODE": 72.0398, "ARG_OF_PERICENTER": 202.1249, "MEAN_ANOMALY": 100.1717, "EPHEMERIS_TYPE": 0, "CLASSIFICATION_TYPE": "U", "NORAD_CAT_ID": 27438, "ELEMENT_SET_NO": 999, "REV_AT_EPOCH": 4950, "BSTAR": 0, "MEAN_MOTION_DOT": 1.08e-06, "MEAN_MOTION_DDOT": 0}, "tle": {"line1": "1 27438U 02027A   25348.19003050  .00000108  00000+0  00000+0 0  9992", "line2": "2 27438   6.2894  72.0398 0002650 202.1249 100.1717  1.00274201 49509"}}, "geometry": {"type": "Point", "coordinates": [-73.81216238714907, -3.5608479124433865]}}, {"type": "Feature", "properties": {"norad_id": 27445, "name": "GALAXY 3C (G-3C)", "group": "intelsat", "lat": -3.0399448267826465, "lon": -31.375999456842457, "alt_km": 35790.921699937724, "timestamp": "2025-12-14T22:38:40.426786+00:00", "meta": {"OBJECT_NAME": "GALAXY 3C (G-3C)", "OBJECT_ID": "2002-030A", "EPOCH": "2025-12-14T06:07:09.408000", "MEAN_MOTION": 1.00271596, "ECCENTRICITY": 0.0001078, "INCLINATION": 3.2681, "RA_OF_ASC_NODE": 80.4909, "ARG_OF_PERICENTER": 83.646, "MEAN_ANOMALY": 275.9634, "EPHEMERIS_TYPE": 0, "CLASSIFICATION_TYPE": "U", "NORAD_CAT_ID": 27445, "ELEMENT_SET_NO": 999, "REV_AT_EPOCH": 4463, "BSTAR": 0, "MEAN_MOTION_DOT": -1.36e-06, "MEAN_MOTION_DDOT": 0}, "tle": {"line1": "1 27445U 02030A   25348.25497000 -.00000136  00000+0  00000+0 0  9995", "line2": "2 27445   3.2681  80.4909 0001078  83.6460 275.9634  1.00271596 44631"}}, "geometry": {"type": "Point", "coordinates": [-31.375999456842457, -3.0399448267826465]}}, {"type": "Feature", "properties": {"norad_id": 27513, "name": "INTELSAT 906 (IS-906)", "group": "intelsat", "lat": 4.237452715769589, "lon": 127.48019768732155, "alt_km": 35806.1016266885, "timestamp": "2025-12-14T22:38:40.426798+00:00", "meta": {"OBJECT_NAME": "INTELSAT 906 (IS-906)", "OBJECT_ID": "2002-041A", "EPOCH": "2025-12-14T05:09:52.396128", "MEAN_MOTION": 1.00271762, "ECCENTRICITY": 0.00062234, "INCLINATION": 5.3328, "RA_OF_ASC_NODE": 75.2135, "ARG_OF_PERICENTER": 193.9246, "MEAN_ANOMALY": 315.5931, "EPHEMERIS_TYPE": 0, "CLASSIFICATION_TYPE": "U", "NORAD_CAT_ID": 27513, "ELEMENT_SET_NO": 999, "REV_AT_EPOCH": 8517, "BSTAR": 0, "MEAN_MOTION_DOT": 2.8e-07, "MEAN_MOTION_DDOT": 0}, "tle": {"line1": "1 27513U 02041A   25348.21518977  .00000028  00000+0  00000+0 0  9995", "line2": "2 27513   5.3328  75.2135 0006223 193.9246 315.5931  1.00271762 85175"}}, "geometry": {"type": "Point", "coordinates": [127.48019768732155, 4.237452715769589]}}, {"type": "Feature", "properties": {"norad_id": 27954, "name": "GALAXY 13 (HORIZONS-1)", "group": "intelsat", "lat": -0.13572382755768259, "lon": -86.4832469954392, "alt_km": 35777.49423083691, "timestamp": "2025-12-14T22:38:40.426813+00:00", "meta": {"OBJECT_NAME": "GALAXY 13 (HORIZONS-1)", "OBJECT_ID": "2003-044A", "EPOCH": "2025-12-14T05:51:25.913952", "MEAN_MOTION": 1.00272215, "ECCENTRICITY": 0.00020641, "INCLINATION": 0.9396, "RA_OF_ASC_NODE": 86.4489, "ARG_OF_PERICENTER": 171.0034, "MEAN_ANOMALY": 123.566, "EPHEMERIS_TYPE": 0, "CLASSIFICATION_TYPE": "U", "NORAD_CAT_ID": 27954, "ELEMENT_SET_NO": 999, "REV_AT_EPOCH": 4471, "BSTAR": 0, "MEAN_MOTION_DOT": 1.5e-06, "MEAN_MOTION_DDOT": 0}, "tle": {"line1": "1 27954U 03044A   25348.24404993  .00000150  00000+0  00000+0 0  9999", "line2": "2 27954   0.9396  86.4489 0002064 171.0034 123.5660  1.00272215 44712"}}, "geometry": {"type": "Point", "coordinates": [-86.4832469954392, -0.13572382755768259]}}, {"type": "Feature", "properties": {"norad_id": 28358, "name": "INTELSAT 10-02", "group": "intelsat", "lat": 0.015034434851849871, "lon": 62.56280059642595, "alt_km": 35788.441186158925, "timestamp": "2025-12-14T22:38:40.426838+00:00", "meta": {"OBJECT_NAME": "INTELSAT 10-02", "OBJECT_ID": "2004-022A", "EPOCH": "2025-12-14T06:33:51.850656", "MEAN_MOTION": 1.00272396, "ECCENTRICITY": 0.00010838, "INCLINATION": 0.024, "RA_OF_ASC_NODE": 68.4015, "ARG_OF_PERICENTER": 230.3312, "MEAN_ANOMALY": 241.9655, "EPHEMERIS_TYPE": 0, "CLASSIFICATION_TYPE": "U", "NORAD_CAT_ID": 28358, "ELEMENT_SET_NO": 999, "REV_AT_EPOCH": 7870, "BSTAR": 0, "MEAN_MOTION_DOT": 7e-08, "MEAN_MOTION_DDOT": 0}, "tle": {"line1": "1 28358U 04022A   25348.27351679  .00000007  00000+0  00000+0 0  9991", "line2": "2 28358   0.0240  68.4015 0001083 230.3312 241.9655  1.00272396 78708"}}, "geometry": {"type": "Point", "coordinates": [62.56280059642595, 0.015034434851849871]}}, {"type": "Feature", "properties": {"norad_id": 28626, "name": "XM-3 (RHYTHM)", "group": "intelsat", "lat": 0.17340176450679165, "lon": 167.3679222581664, "alt_km": 36167.18299261156, "timestamp": "2025-12-14T22:38:40.426852+00:00", "meta": {"OBJECT_NAME": "XM-3 (RHYTHM)", "OBJECT_ID": "2005-008A", "EPOCH": "2025-12-14T05:21:51.247584", "MEAN_MOTION": 0.9895183, "ECCENTRICITY": 0.00016408, "INCLINATION": 0.1786, "RA_OF_ASC_NODE": 81.6747, "ARG_OF_PERICENTER": 273.4464, "MEAN_ANOMALY": 275.7618, "EPHEMERIS_TYPE": 0, "CLASSIFICATION_TYPE": "U", "NORAD_CAT_ID": 28626, "ELEMENT_SET_NO": 999, "REV_AT_EPOCH": 4076, "BSTAR": 0, "MEAN_MOTION_DOT": -9.9e-07, "MEAN_MOTION_DDOT": 0}, "tle": {"line1": "1 28626U 05008A   25348.22350981 -.00000099  00000+0  00000+0 0  9996", "line2": "2 28626   0.1786  81.6747 0001640 273.4464 275.7618  0.98951830 40768"}}, "geometry": {"type": "Point", "coordinates": [167.3679222581664, 0.17340176450679165]}}]}